C/2020 K7 (PANSTARRS),e,32.0439,286.1015,358.2132,97.09663,0.0010301,0.93414725,1.6129,02/09.0/2024,2000,g  8.0,4.0
# From MPEC 2021-P47
C/2020 K8 (Catalina-ATLAS),h,09/15.1379/2020,31.4426,181.4962,259.9756,1.000229,0.471238,2000,15.0,3.2
# From MPEC 2021-BE3
P/2020 K9 (Lemmon-PANSTARRS),e,23.2040,166.3126,197.0601,4.204659,0.1143162,0.32092933,124.7939,02/09.0/2024,2000,g 12.5,4.0
# From MPEC 2023-C45
P/2020 M1 (PANSTARRS),e,8.5336,142.6041,72.6212,5.315875,0.0804159,0.47310334,121.2444,02/09.0/2024,2000,g 14.5,4.0
# From MPEC 2022-H30
C/2020 M3 (ATLAS),e,23.4700,71.1800,328.5745,27.19487,0.0069498,0.95330483,8.3468,02/09.0/2024,2000,g 14.5,4.0
# From MPEC 2023-N01
A/2020 M4,h,11/23.9023/2020,160.1193,348.6235,104.5921,1.000920,5.947654,2000,14.5,2.0
# From MPC xxxxx
P/2020 MK4 (PANSTARRS),e,6.7890,0.7034,95.4458,6.215293,0.0636080,0.01311220,283.9554,02/09.0/2024,2000,g  8.0,4.0
# From MPEC 2023-FK0
C/2020 M5 (ATLAS),h,08/19.8594/2021,93.2062,352.0756,126.2746,1.000318,3.001188,2000,9.0,4.0
# From MPEC 2022-GA9
C/2020 N1 (PANSTARRS),h,03/12.6012/2021,29.7364,279.8948,186.7767,1.000585,1.317325,2000,12.5,4.0
# From MPEC 2021-P47
C/2020 N2 (ATLAS),e,161.0399,257.1656,331.2967,102.9706,0.0009433,0.98260968,0.0000,08/24.0966/2020,2000,g 16.0,3.2
# From MPEC 2023-XP6
C/2020 O2 (Amaral),h,08/28.1739/2021,71.7622,256.7860,10.2694,1.000909,4.861397,2000,8.0,3.2
# From MPEC 2023-C45
P/2020 O3 (PANSTARRS),e,8.4446,266.8188,81.5378,4.647067,0.0983865,0.10275349,108.8253,02/09.0/2024,2000,g 12.0,4.0
# From MPEC 2021-BE3
C/2020 P1 (NEOWISE),h,10/20.7243/2020,45.1667,53.4760,8.8986,1.000363,0.340678,2000,14.0,3.2
# From MPEC 2023-O39
C/2020 P3 (ATLAS),h,04/21.9213/2021,61.8850,19.4693,82.2993,1.002482,6.813196,2000,6.0,4.0
# From MPEC 2022-PB4
C/2020 PV6 (PANSTARRS),e,128.2045,329.1466,71.3546,42.01064,0.0036196,0.94540508,3.1342,02/09.0/2024,2000,g 10.0,4.0
# From MPEC 2022-L66
C/2020 Q1 (Borisov),e,142.9433,52.3970,9.9748,61.56123,0.0020405,0.97858664,0.0000,08/14.7002/2020,2000,g 14.0,4.0
# From MPEC 2023-CD7
C/2020 Q2 (PANSTARRS),e,3.3356,179.8221,118.2831,10.62586,0.0284549,0.49041315,41.9134,02/09.0/2024,2000,g 12.0,3.2
# From MPEC 2024-C04
C/2020 R2 (PANSTARRS),e,53.2275,195.0982,211.8327,421.7785,0.0001138,0.98886940,0.0000,02/25.1668/2022,2000,g  9.0,4.0
# From MPEC 2022-K19
C/2020 R4 (ATLAS),e,164.4364,323.2630,46.6312,99.35515,0.0009952,0.98968663,0.0000,03/02.3345/2021,2000,g 13.5,4.0
# From MPEC 2023-C45
P/2020 R5 (PANSTARRS),e,11.4416,272.9550,82.7114,4.989925,0.0884226,0.31405842,119.4327,02/09.0/2024,2000,g  9.5,6.0
# From MPEC 2021-Y10
C/2020 R6 (Rankin),e,82.8268,12.1872,271.9978,302.6273,0.0001872,0.98963563,0.0000,09/07.8124/2019,2000,g 11.0,4.0
# From MPEC 2024-C04
C/2020 R7 (ATLAS),h,09/16.2219/2022,114.9018,268.2953,347.8313,1.000196,2.955421,2000,7.0,3.2
# From MPEC 2021-BE3
P/2020 S1 (PANSTARRS),e,13.7231,129.5163,255.0458,5.997004,0.0671124,0.50758563,74.9894,02/09.0/2024,2000,g 14.0,4.0
# From MPEC 2022-ST7
C/2020 S2 (PANSTARRS),e,22.4012,197.6954,202.3548,10.23571,0.0300973,0.82818907,34.4220,02/09.0/2024,2000,g 17.0,4.0
# From MPEC 2022-C56
C/2020 S3 (Erasmus),e,20.0207,222.5921,350.0693,146.6031,0.0005553,0.99730175,0.0000,12/11.6719/2020,2000,g 13.5,3.2
# From MPEC 2024-BE0
C/2020 S4 (PANSTARRS),h,02/09.2827/2023,20.5674,117.7091,21.0047,1.001808,3.369708,2000,8.5,3.2
# From MPEC 2021-BE3
P/2020 S5 (PANSTARRS),e,12.3454,316.0544,53.2267,4.055960,0.1206601,0.33813182,154.3160,02/09.0/2024,2000,g 14.5,4.0
# From MPEC 2021-BE3
P/2020 S7 (PANSTARRS),e,16.0826,328.0934,40.5960,5.033367,0.0872803,0.41035933,102.7541,02/09.0/2024,2000,g 14.5,4.0
# From MPEC 2021-P47
C/2020 S8 (Lemmon),e,108.5284,24.0624,160.2203,252.9519,0.0002450,0.99067384,0.0000,04/10.7146/2021,2000,g 12.5,4.0
# From MPEC 2022-TD3
C/2020 T2 (Palomar),e,27.8375,83.0594,150.4349,292.4572,0.0001971,0.99296272,0.0000,07/10.7510/2021,2000,g 11.0,3.2
# From MPEC 2021-N06
P/2020 T3 (PANSTARRS),e,7.2986,73.9934,357.0452,3.516684,0.1494528,0.59234663,166.4540,02/09.0/2024,2000,g 18.0,3.2
# From MPEC 2021-N06
C/2020 T4 (PANSTARRS),h,07/05.4986/2021,83.8523,50.6197,79.5919,1.000357,2.190573,2000,13.0,3.2
# From MPEC 2021-BE3
C/2020 T5 (Lemmon),e,66.5465,237.8304,90.3584,688.8605,0.0000545,0.99725125,0.0000,10/08.8895/2020,2000,g 16.0,4.0
# From MPEC 2021-N06
P/2020 U2 (PANSTARRS),e,6.4201,342.8765,84.6704,3.777992,0.1342186,0.51133372,152.9416,02/09.0/2024,2000,g 18.0,4.0
# From MPEC 2021-W31
C/2020 U3 (Rankin),e,30.1470,282.6513,124.3739,67.10394,0.0017930,0.96603574,1.9682,02/09.0/2024,2000,g 15.0,4.0
# From MPEC 2023-W26
C/2020 U4 (PANSTARRS),h,04/09.4587/2022,167.0179,120.3545,70.0745,1.000379,5.359712,2000,7.0,4.0
# From MPEC 2023-SQ0
C/2020 U5 (PANSTARRS),e,97.2861,107.3187,75.4457,4103,0.0000037,0.99908444,0.0000,04/28.0223/2022,2000,g  8.0,4.0
# From MPEC 2024-BE0
C/2020 V2 (ZTF),h,05/08.4661/2023,131.6117,212.3712,162.3940,1.000837,2.227592,2000,4.9,4.0
# From MPEC 2023-D72
P/2020 V3 (PANSTARRS),e,23.0316,198.2556,249.5087,8.394567,0.0405235,0.25752272,44.2712,02/09.0/2024,2000,g  8.3,4.0
# From MPEC 2023-KD6
P/2020 V4 (Rankin),e,14.2438,203.4838,257.0944,9.380004,0.0343083,0.45103447,32.0772,02/09.0/2024,2000,g  9.0,4.0
# From MPEC 2021-BE3
P/2020 W1 (Rankin),e,10.7822,124.3946,265.1973,7.220070,0.0508033,0.26622570,71.1231,02/09.0/2024,2000,g 10.0,4.0
# From MPEC 2021-BE3
C/2020 W5 (Lemmon),h,11/30.4017/2020,88.6094,75.4738,24.5233,1.001395,3.366382,2000,15.0,4.0
# From MPEC 2024-BE0
P/2020 WJ5 (Lemmon),e,22.2906,177.7994,338.0811,6.015144,0.0668090,0.17157850,63.7307,02/09.0/2024,2000,g  8.5,4.0
# From MPEC 2021-P47
P/2020 X1 (ATLAS),e,31.6879,56.0445,323.4437,4.532847,0.1021286,0.36521141,132.5673,02/09.0/2024,2000,g 13.0,4.0
# From MPEC 2024-A43
C/2020 X2 (ATLAS),e,18.1845,105.3920,347.4351,16.48582,0.0147244,0.76782610,17.3673,02/09.0/2024,2000,g 10.6,4.0
# From MPEC 2021-S45
C/2020 X4 (Leonard),e,80.6280,161.9113,140.3169,40.75737,0.0037879,0.87182734,4.4699,02/09.0/2024,2000,g  9.0,4.0
# From MPEC 2024-C04
C/2020 Y2 (ATLAS),e,101.2049,26.5330,266.4223,2594,0.0000075,0.99878780,0.0000,06/18.4640/2022,2000,g  6.5,4.0
# From MPEC 2021-R75
C/2020 Y3 (ATLAS),e,83.1072,191.4231,341.9021,139.9842,0.0005951,0.98575740,0.0000,12/03.2647/2020,2000,g 13.5,4.0
# From MPEC 2023-CD7
C/2021 A1 (Leonard),h,01/03.3533/2022,132.7410,255.9069,225.1371,1.000096,0.616120,2000,8.5,4.0
# From MPEC 2022-F14
C/2021 A2 (NEOWISE),e,107.0080,125.1492,338.7693,229.0662,0.0002843,0.99383358,0.0000,01/22.2520/2021,2000,g 13.5,4.0
# From MPEC 2022-ED3
C/2021 A4 (NEOWISE),e,111.5620,307.1048,204.7200,42.38750,0.0035715,0.97290777,0.0000,03/19.5818/2021,2000,g 16.0,4.0
# From MPEC 2021-BE3
P/2021 A5 (PANSTARRS),e,18.1855,328.8267,61.3623,3.047557,0.1852577,0.13991586,219.0972,02/09.0/2024,2000,g 15.0,4.0
# From MPEC 2023-O39
C/2021 A6 (PANSTARRS),e,75.5894,164.0626,351.6141,8897,0.0000012,0.99910927,0.0000,05/02.9448/2021,2000,g  7.0,4.0
# From MPEC 2022-M88
C/2021 A7 (NEOWISE),e,78.1676,154.4748,355.9886,1902,0.0000119,0.99896657,0.0000,07/15.1395/2021,2000,g 10.0,4.0
# From MPEC 2024-C04
C/2021 A9 (PANSTARRS),h,12/02.0796/2023,158.0132,314.8340,211.4826,1.001187,7.760074,2000,6.0,4.0
# From MPEC 2021-N06
C/2021 A10 (NEOWISE),e,151.9477,188.7378,82.4981,89.61004,0.0011619,0.98590353,0.0000,03/15.0915/2021,2000,g 19.0,4.0
# From MPEC 2022-L66
C/2021 B2 (PANSTARRS),e,38.0820,120.5022,335.0027,377.7191,0.0001343,0.99335023,0.0000,05/04.5592/2021,2000,g 14.0,4.0
# From MPEC 2021-N06
C/2021 B3 (NEOWISE),e,119.4759,67.2763,293.5366,34.30047,0.0049063,0.93695921,5.2294,02/09.0/2024,2000,g 13.5,4.0
# From MPEC 2023-KD6
C/2021 C1 (Rankin),e,143.0434,186.8822,336.1682,3769,0.0000043,0.99907806,0.0000,12/06.6531/2020,2000,g 11.5,4.0
# From MPEC 2021-U31
P/2021 C2 (PANSTARRS),e,21.9397,66.4566,78.7004,9.536775,0.0334658,0.48770781,36.1548,02/09.0/2024,2000,g 12.0,4.0
# From MPEC 2021-N06
C/2021 C3 (Catalina),e,122.1715,181.9111,357.0309,61.19084,0.0020591,0.96284541,2.2488,02/09.0/2024,2000,g 14.0,4.0
# From MPEC 2022-M88
C/2021 C4 (ATLAS),e,132.8487,194.2698,320.1394,15051,0.0000005,0.99970111,0.0000,01/16.8328/2021,2000,g  9.0,4.0
# From MPEC 2023-R20
C/2021 C5 (PANSTARRS),e,50.7872,323.6749,270.9194,1893,0.0000120,0.99828736,0.0000,02/11.0278/2023,2000,g  9.0,4.0
# From MPEC 2022-YB4
C/2021 C6 (Lemmon),e,164.6052,332.3406,203.8224,6284,0.0000020,0.99947824,0.0000,11/12.6399/2021,2000,g 12.0,4.0
# From MPEC 2022-F14
C/2021 D1 (SWAN),e,31.4114,311.2569,72.2995,101.3260,0.0009663,0.99107929,0.0000,02/27.7437/2021,2000,g 13.0,4.0
# From MPEC 2023-J29
C/2021 D2 (ZTF),h,02/03.9423/2022,83.7980,305.6643,125.0307,1.001616,2.946537,2000,9.0,4.0
# From MPEC 2022-UY9
A/2021 E2,e,167.4892,190.8049,342.3226,215.2710,0.0003121,0.98939420,0.0000,12/10.0850/2020,2000,g 15.0,2.0
# From MPEC 2024-BE0
C/2021 E3 (ZTF),h,06/11.8160/2022,112.5359,104.4821,228.8366,1.000607,1.777141,2000,8.5,4.0
# From MPEC 2023-SQ0
A/2021 E4,e,116.3625,171.1648,48.2657,542.6306,0.0000780,0.99138126,0.0000,04/25.0646/2022,2000,g 13.5,22.0
# From MPEC 2022-QD9
C/2021 F1 (Lemmon-PANSTARRS),e,107.3172,203.4729,146.8692,241.6226,0.0002624,0.99587364,0.0000,04/06.8007/2022,2000,g 13.5,4.0
# From MPEC 2021-J72
C/2021 G1 (Leonard),e,131.5481,270.6991,107.4451,72.84726,0.0015852,0.95299139,1.4781,02/09.0/2024,2000,g 14.0,4.0
# From MPEC 2024-C04
C/2021 G2 (ATLAS),e,48.4746,221.0941,343.2945,36936,0.0000001,0.99986511,0.0000,09/09.3417/2024,2000,g  5.5,4.0
# From MPEC 2022-X67
C/2021 G3 (PANSTARRS),e,102.8700,147.3887,10.5838,16151,0.0000005,0.99967927,0.0000,10/17.9610/2021,2000,g 10.5,4.0
# From MPEC 2021-Y10
P/2021 HS (PANSTARRS),e,12.1575,262.3684,46.1375,4.194457,0.1147335,0.80960259,105.2187,02/09.0/2024,2000,g 22.0,4.0
# From MPEC 2022-C56
C/2021 J1 (Maury-Attard),e,92.7157,88.4001,147.2904,26.32351,0.0072977,0.93393242,7.9153,02/09.0/2024,2000,g 15.5,4.0
# From MPEC 2023-XP6
C/2021 J2 (PANSTARRS),e,156.2128,23.3324,171.9696,115.7472,0.0007915,0.95936825,0.6887,02/09.0/2024,2000,g 12.0,4.0
